0 RUBIN 2
1 27605U 02058A   13282.74044153  .00000304  00000-0  67245-4 0  2054
2 27605 064.5568 256.6858 0033839 119.8348 299.8688 14.73487669580970
0 RUBIN 2
1 27605U 02058A   13284.10010812  .00000425  00000-0  85566-4 0  2062
2 27605 064.5569 252.5430 0033758 119.2365 312.5125 14.73489345581170
0 RUBIN 2
1 27605U 02058A   13285.40096106  .00000295  00000-0  65859-4 0  2075
2 27605 064.5571 248.5794 0033678 118.5890 013.2495 14.73490814581366
0 RUBIN 2
1 27605U 02058A   13286.42114257  .00000333  00000-0  71668-4 0  2085
2 27605 064.5572 245.4710 0033621 118.1207 025.0533 14.73491693581514
0 RUBIN 2
1 27605U 02058A   13287.49923851  .00000420  00000-0  84822-4 0  2095
2 27605 064.5574 242.1862 0033574 117.6030 344.1047 14.73492918581676
0 RUBIN 2
1 27605U 02058A   13288.78458396  .00000562  00000-0  10641-3 0  2101
2 27605 064.5575 238.2701 0033515 117.0421 322.5203 14.73495028581868
0 RUBIN 2
1 27605U 02058A   13289.80381172  .00000525  00000-0  10078-3 0  2116
2 27605 064.5575 235.1647 0033471 116.5558 329.2985 14.73496976582011
0 RUBIN 2
1 27605U 02058A   13290.67002313  .00000820  00000-0  12453-3 0  2139
2 27605 064.5567 232.5319 0033693 117.1595 243.3432 14.73496151582145
0 RUBIN 2
1 27605U 02058A   13291.16311162  .00000530  00000-0  10165-3 0  2124
2 27605 064.5575 231.0233 0033395 115.9017 340.1011 14.73498719582216
0 RUBIN 2
1 27605U 02058A   13292.45525583  .00000531  00000-0  10166-3 0  2134
2 27605 064.5574 227.0865 0033321 115.2922 354.6509 14.73500224582406
0 RUBIN 2
1 27605U 02058A   13293.59844907  .00000545  00000-0  10381-3 0  2149
2 27605 064.5573 223.6036 0033250 114.7745 299.0326 14.73502125582574
0 RUBIN 2
1 27605U 02058A   13294.74497907  .00000556  00000-0  10555-3 0  2157
2 27605 064.5572 220.1104 0033214 114.1838 261.1931 14.73504031582747
0 RUBIN 2
1 27605U 02058A   13296.19881626  .00000508  00000-0  98220-4 0  2167
2 27605 064.5572 215.6809 0033158 113.4398 053.5750 14.73506393582956
